AMC-8 (GE-8)            
1 26639U 00081B   19208.12085772  .00000108  00000-0  00000+0 0  9995
2 26639   0.0162  61.4183 0000772 111.5542  36.0160  1.00273590 68035
SKYNET 4F               
1 26695U 01005B   19207.85470095 -.00000250  00000-0  00000+0 0  9998
2 26695   9.6811  31.6119 0002512  92.3967  93.8928  1.00268617 67634
USA 157 (MILSTAR-2 2)   
1 26715U 01009A   19207.95537122 -.00000364  00000-0  00000+0 0  9997
2 26715   9.0292  32.1001 0001495  72.5267 294.6571  1.00276805  6403
EUTELSAT 33C            
1 26719U 01011A   19207.69139530  .00000081  00000-0  00000-0 0  9992
2 26719   1.2122  90.6535 0004696  35.2165 294.2544  1.00270705 67296
INTELSAT 10 (IS-10)     
1 26766U 01019A   19207.87092684  .00000126  00000-0  00000-0 0  9990
2 26766   3.1603  81.1104 0002673  14.7305 209.4495  1.00269713 20391
INTELSAT 901 (IS-901)   
1 26824U 01024A   19208.42983417 -.00000211  00000-0  00000+0 0  9991
2 26824   1.1458  92.9847 0003090  47.8109 289.2539  1.00271651 66365
ASTRA 2C                
1 26853U 01025A   19207.86621609  .00000139  00000-0  00000-0 0  9992
2 26853   2.0772  87.9013 0002912  39.1262 152.7300  1.00272138 19810
USA 159 (DSP 21)        
1 26880U 01033A   19208.42590854 -.00000296  00000-0  00000+0 0  9995
2 26880  10.4597  32.5600 0001967 155.3393 220.9697  1.00265025  6383
INTELSAT 902 (IS-902)   
1 26900U 01039A   19207.87380563  .00000037  00000-0  00000-0 0  9999
2 26900   0.0461 269.8886 0003012 218.5906 192.3331  1.00272064 65470
EUTELSAT 12 WEST B      
1 26927U 01042A   19207.85897552 -.00000096  00000-0  00000-0 0  9997
2 26927   0.3160  93.9032 0006323  21.1185 125.9530  1.00271560 65273
DIRECTV 4S              
1 26985U 01052A   19207.84126662 -.00000109  00000-0  00000-0 0  9993
2 26985   0.0176  40.7705 0002231  33.8563  71.2720  1.00271911 26071
USA 164 (MILSTAR-2 3)   
1 27168U 02001A   19207.97044128  .00000104  00000-0  00000-0 0  9996
2 27168   8.4413  33.2845 0002554 117.9899 161.4143  1.00274849  7711
ECHOSTAR 7              
1 27378U 02006A   19207.62239170  .00000004  00000-0  00000-0 0  9998
2 27378   0.0525 274.5373 0000853 201.8359 292.9043  1.00271926 25369
INTELSAT 904 (IS-904)   
1 27380U 02007A   19208.33211378 -.00000138  00000-0  00000+0 0  9999
2 27380   0.6956  96.8651 0002764  48.5141 263.5863  1.00150043 63854
TDRS 9                  
1 27389U 02011A   19208.47519819 -.00000287  00000-0  00000+0 0  9994
2 27389   6.8175  70.5010 0018870 265.2388  78.0210  1.00271112 65205
JCSAT 2A                
1 27399U 02015A   19208.51507765 -.00000305  00000-0  00000+0 0  9992
2 27399   2.1571  87.7597 0003132 141.6356  36.9316  1.00270502 63381
ASTRA 3A                
1 27400U 02015B   19208.46871733 -.00000282  00000-0  00000+0 0  9992
2 27400   5.2801  65.1412 0002545  67.2883 294.1944  1.00273238 63480
INTELSAT 903 (IS-903)   
1 27403U 02016A   19207.85522437 -.00000221  00000-0  00000-0 0  9996
2 27403   1.5285  91.3915 0002797  24.6046 104.6222  1.00272309 20434
NSS-7                   
1 27414U 02019A   19207.89076424 -.00000155  00000-0  00000-0 0  9991
2 27414   3.5176  78.8161 0002495  40.3874 125.7360  1.00271848 63328
DIRECTV 5 (TEMPO 1)     
1 27426U 02023A   19207.69593157 -.00000051  00000-0  00000-0 0  9999
2 27426   0.0196  67.9412 0003528  76.6332 299.9328  1.00270606 63084
INTELSAT 905 (IS-905)   
1 27438U 02027A   19207.86646681 -.00000180  00000-0  00000-0 0  9999
2 27438   0.5144  98.2918 0002463  35.1212  98.2760  1.00271278 62723
EXPRESS-A4              
1 27441U 02029A   19207.89046769 -.00000247  00000-0  00000-0 0  9993
2 27441   7.3160  51.9890 0016669  78.1127 280.2703  1.00268874 62728
GALAXY 3C (G-3C)        
1 27445U 02030A   19208.04071101 -.00000147  00000-0  00000+0 0  9993
2 27445   0.0237 315.6049 0001605  17.9481 250.4993  1.00272469 62715
EUTELSAT 5 WEST A       
1 27460U 02035A   19207.86045852 -.00000038  00000-0  00000-0 0  9998
2 27460   0.0459  78.6997 0005938  39.4186 130.8978  1.00272536 62371
N-STAR C                
1 27461U 02035B   19208.51507765 -.00000312  00000-0  00000+0 0  9992
2 27461   6.0397  60.6803 0004732  28.2896 177.3403  1.00269191 62429
METEOSAT-8 (MSG-1)      
1 27509U 02040B   19208.19077201  .00000139  00000-0  00000+0 0  9998
2 27509   6.1563  55.4365 0000379 145.5183 213.7443  1.00267494 62005
INTELSAT 906 (IS-906)   
1 27513U 02041A   19207.93960887  .00000018  00000-0  00000-0 0  9993
2 27513   0.0065  96.3762 0002334  41.0089 209.3401  1.00272012 61784
HISPASAT 30W-4          
1 27528U 02044A   19207.90900959 -.00000213  00000-0  00000-0 0  9991
2 27528   0.3170  94.0248 0004842  45.5421 101.8062  1.00271218 17731
TDRS 10                 
1 27566U 02055A   19207.82722164  .00000092  00000-0  00000+0 0  9999
2 27566   6.3434  55.0877 0005766 310.0318  65.6414  1.00273944 60989
NSS-6                   
1 27603U 02057A   19208.47437012 -.00000194  00000-0  00000+0 0  9994
2 27603   0.0520 266.7905 0004305 238.0901 243.9740  1.00272778 60859
NIMIQ 2                 
1 27632U 02062A   19207.80785525 -.00000242  00000-0  00000+0 0  9997
2 27632   3.6256  78.1302 0007303  16.9824 231.4101  1.00269703 60622
INTELSAT 907 (IS-907)   
1 27683U 03007A   19207.85600949 -.00000198  00000-0  00000-0 0  9995
2 27683   0.0187  75.4025 0002165  61.1225  88.3847  1.00269276 60195
USA 167                 
1 27691U 03008A   19208.53715052  .00000057  00000-0  00000+0 0  9995
2 27691   6.0379  60.5916 0002680 351.7817 315.7628  1.00270576  6384
USA 169 (MILSTAR-2 4)   
1 27711U 03012A   19207.62213000 -.00000006  00000-0  00000-0 0  9994
2 27711   8.5787  47.0188 0003476  71.2619 289.6978  1.00274330  7713
GALAXY 12 (G-12)        
1 27715U 03013B   19207.69218043  .00000062  00000-0  00000+0 0  9998
2 27715   0.7310  95.4625 0002317  46.1161 282.6828  1.00271830 59763
ASIASAT 4               
1 27718U 03014A   19207.86909487  .00000157  00000-0  00000-0 0  9996
2 27718   0.0056  53.7598 0001762  77.9799 163.5612  1.00271837 20059
HELLAS-SAT 2            
1 27811U 03020A   19207.84248793 -.00000147  00000-0  00000-0 0  9991
2 27811   1.1498  96.0115 0002581  18.6596  37.6476  1.00272834 17612
THURAYA-2               
1 27825U 03026A   19207.72779987  .00000131  00000-0  00000-0 0  9995
2 27825   5.6003  31.9123 0004766  89.5493 128.6440  1.00272503 59100
OPTUS C1                
1 27831U 03028B   19207.89247411 -.00000146  00000-0  00000-0 0  9991
2 27831   0.6542  99.0466 0005377  23.7653 298.4753  1.00271627 27814
ECHOSTAR 12 (RAINBOW 1) 
1 27852U 03033A   19207.59076861 -.00000195  00000-0  00000-0 0  9990
2 27852   0.0505 275.0479 0001860 164.5043 350.6983  1.00273773 58702
GALAXY 23 (G-23)        
1 27854U 03034A   19207.62195552  .00000018  00000-0  00000-0 0  9999
2 27854   0.0118  71.3823 0003097  56.2431 279.2862  1.00272307 58496
USA 170                 
1 27875U 03040A   19208.27363818 -.00000272  00000-0  00000+0 0  9995
2 27875   5.2375  66.1238 0004206  67.7084 226.8400  1.00267862  6384
GALAXY 13 (HORIZONS 1)  
1 27954U 03044A   19208.53937441  .00000053  00000-0  00000+0 0  9991
2 27954   0.0055  52.0427 0001181 280.2459  39.7752  1.00260834 57920
YAMAL 202               
1 28089U 03053A   19206.79446065  .00000121  00000-0  00000+0 0  9990
2 28089   0.0831  96.9566 0004466 152.7992  28.5358  1.00293458 57428
UFO 11 (USA 174)        
1 28117U 03057A   19208.52258109 -.00000097  00000-0  00000+0 0  9992
2 28117   5.7337  36.9214 0002375 347.5922 183.6886  1.00270413 57189
USA 176 (DSP 22)        
1 28158U 04004A   19207.87907866 -.00000217  00000-0  00000-0 0  9993
2 28158   8.7478  41.0779 0000498  57.6250 249.4087  1.00270502  7686
ABS-4 (MOBISAT-1)       
1 28184U 04007A   19207.87363113  .00000045  00000-0  00000-0 0  9994
2 28184   0.0036  37.1043 0001343 102.9847 179.6856  1.00269038 27093
EUTELSAT 7A             
1 28187U 04008A   19208.09146734  .00000052  00000-0  00000+0 0  9998
2 28187   0.0639   1.1049 0005719 137.3921 205.8846  1.00272371 56332
DIRECTV 7S              
1 28238U 04016A   19207.69409962  .00000006  00000-0  00000-0 0  9994
2 28238   0.0301 291.7559 0002976 201.1620 301.9741  1.00272150 55815
AMC-11 (GE-11)          
1 28252U 04017A   19207.69174425  .00000073  00000-0  00000-0 0  9998
2 28252   0.0304 314.8127 0002581 170.4254 296.8749  1.00271785 55469
INTELSAT 10-02          
1 28358U 04022A   19208.08361126 -.00000007  00000-0  00000+0 0  9998
2 28358   0.0184  81.0066 0002581  56.3556 196.2159  1.00270237 55384
ANIK F2                 
1 28378U 04027A   19207.62396194 -.00000045  00000-0  00000-0 0  9990
2 28378   0.0174  34.6499 0000351 189.8458 193.0718  1.00272575 16048
AMC-15                  
1 28446U 04041A   19207.62518324 -.00000084  00000-0  00000-0 0  9996
2 28446   0.0530 290.4782 0002443 196.9260 296.6143  1.00270545 54129
AMC-16                  
1 28472U 04048A   19207.84449435 -.00000202  00000-0  00000-0 0  9994
2 28472   0.0326 303.2658 0002691 192.5333  27.4473  1.00270926 53492
NSS-10 (AMC-12)         
1 28526U 05003A   19208.11368685 -.00000247  00000-0  00000+0 0  9992
2 28526   0.2638  96.9318 0002517  38.0230 173.0154  1.00270603 53076
XTAR-EUR                
1 28542U 05005A   19208.07378873  .00000155  00000-0  00000+0 0  9994
2 28542   0.0125  82.9478 0002200  43.2278 233.8447  1.00268909 52945
XM-3 (RHYTHM)           
1 28626U 05008A   19207.84449435 -.00000201  00000-0  00000-0 0  9991
2 28626   0.0005 223.7530 0000252 353.5129 305.8660  1.00271054 17398
INMARSAT 4-F1           
1 28628U 05009A   19208.50952035 -.00000258  00000-0  00000+0 0  9994
2 28628   3.0399  23.5965 0002972 111.2058 137.0037  1.00272391 52430
APSTAR 6                
1 28638U 05012A   19208.53680053 -.00000144  00000-0  00000+0 0  9994
2 28638   0.9148  95.1839 0002932  53.5883 136.0812  1.00672380 77174
